OBJECT_NAME,OBJECT_ID,EPOCH,MEAN_MOTION,ECCENTRICITY,INCLINATION,RA_OF_ASC_NODE,ARG_OF_PERICENTER,MEAN_ANOMALY,EPHEMERIS_TYPE,CLASSIFICATION_TYPE,NORAD_CAT_ID,ELEMENT_SET_NO,REV_AT_EPOCH,BSTAR,MEAN_MOTION_DOT,MEAN_MOTION_DDOT
STARLINK-34517,2025-137B,2026-05-09T02:46:31.683072,15.30187350,.0001294,53.1608,54.7611,35.2120,324.8966,0,U,64595,999,4998,.87334E-3,.25586E-3,0
STARLINK-34510,2025-137C,2026-05-09T02:38:53.839104,15.30201210,.0001154,53.1601,54.7278,69.7784,290.3341,0,U,64596,999,4998,.43904E-3,.12667E-3,0
STARLINK-34486,2025-137D,2026-05-09T01:39:47.392128,15.30201409,.0001119,53.1595,55.1781,87.2430,272.8699,0,U,64597,999,4997,.89727E-4,.2299E-4,0
STARLINK-34463,2025-137E,2026-05-09T04:37:15.693600,15.30198166,.0001033,53.1605,54.5262,72.6256,287.4857,0,U,64598,999,4999,.51963E-3,.15061E-3,0
STARLINK-34294,2025-137F,2026-05-09T02:40:24.490848,15.30216782,.0001079,53.1603,54.7292,91.0240,269.0885,0,U,64599,999,4998,.4636E-3,.13403E-3,0
STARLINK-34504,2025-137G,2026-05-09T04:44:51.749952,15.30182040,.000118,53.1595,54.5620,84.6261,275.4874,0,U,64600,999,4999,.10725E-2,.31523E-3,0
STARLINK-34508,2025-137H,2026-05-09T02:05:27.878208,15.30198374,.0000922,53.1578,54.5801,77.2462,282.8642,0,U,64601,999,4998,.6314E-3,.18386E-3,0
STARLINK-34435,2025-137J,2026-05-09T02:35:51.565344,15.30196588,.0001272,53.1601,54.7110,72.6445,287.4695,0,U,64602,999,4998,.17846E-3,.4929E-4,0
STARLINK-34475,2025-137K,2026-05-09T02:26:43.835136,15.30197964,.0000963,53.1589,54.6699,98.1159,261.9950,0,U,64603,999,4998,.6148E-4,.1462E-4,0
STARLINK-34488,2025-137L,2026-05-09T02:00:54.376416,15.30195754,.0001108,53.1566,54.5603,80.8889,279.2237,0,U,64604,999,4998,-.24548E-5,-.432E-5,0
STARLINK-34516,2025-137M,2026-05-09T01:23:51.726048,15.31744050,.0001292,53.1607,54.4021,89.1684,270.9466,0,U,64605,999,5008,.65004E-3,.19888E-3,0
STARLINK-34073,2025-137N,2026-05-09T01:54:49.603392,15.30198020,.0001229,53.1580,54.5322,87.8121,272.3020,0,U,64606,999,4986,.43148E-3,.12441E-3,0
STARLINK-34532,2025-137P,2026-05-09T02:49:23.817792,15.30230658,.0001111,53.1575,64.7095,113.7186,246.3931,0,U,64607,999,4984,.13045E-2,.38514E-3,0
STARLINK-34519,2025-137Q,2026-05-09T02:14:34.628640,15.30187359,.0001165,53.1583,54.6152,66.6347,293.4776,0,U,64608,999,4998,.59617E-3,.17332E-3,0
STARLINK-34513,2025-137R,2026-05-09T02:10:01.329024,15.30206434,.0001258,53.1586,54.5961,74.8640,285.2500,0,U,64609,999,5007,.35893E-3,.10288E-3,0
STARLINK-34569,2025-137S,2026-05-09T01:18:30.915072,15.30192156,.0000998,53.1610,55.0852,107.2242,252.8868,0,U,64610,999,4997,.15723E-3,.4299E-4,0
STARLINK-34494,2025-137T,2026-05-09T00:49:38.533728,15.30216091,.0001291,53.1594,54.9586,93.2115,266.9033,0,U,64611,999,4997,.94338E-3,.27699E-3,0
STARLINK-34521,2025-137U,2026-05-09T02:08:29.791680,15.30207264,.0000995,53.1578,54.5881,88.1789,271.9326,0,U,64612,999,4998,.36971E-3,.10609E-3,0
STARLINK-34500,2025-137V,2026-05-09T02:41:56.035968,15.30202000,.0001535,53.1604,54.7332,76.6589,283.4583,0,U,64613,999,5008,.35604E-3,.10201E-3,0
STARLINK-34440,2025-137W,2026-05-09T02:31:17.661792,15.30207966,.0001147,53.1600,54.6874,102.3824,257.7305,0,U,64614,999,4998,.32606E-3,.9312E-4,0
STARLINK-34469,2025-137X,2026-05-09T01:48:45.226080,15.30230093,.0000907,53.1582,54.5053,102.7450,257.3652,0,U,64615,999,4998,.64783E-3,.18894E-3,0
STARLINK-34413,2025-137Y,2026-05-09T01:26:06.929088,15.30202781,.0001152,53.1610,55.1155,92.7329,267.3803,0,U,64616,999,5007,.52131E-3,.15113E-3,0
STARLINK-34417,2025-137Z,2026-05-09T01:25:16.131936,15.30196172,.0001038,53.1594,42.1086,89.4551,270.6568,0,U,64617,999,5025,.37532E-3,.10772E-3,0
STARLINK-34415,2025-137AA,2026-05-09T02:17:37.175424,15.30219469,.0000856,53.1571,54.6292,85.4137,274.6961,0,U,64618,999,4998,.10678E-4,-.43E-6,0
STARLINK-34416,2025-137AB,2026-05-09T02:13:03.612288,15.30201173,.0001022,53.1575,54.6044,68.7600,291.3510,0,U,64619,999,4998,.6317E-3,.18397E-3,0
STARLINK-34414,2025-137AC,2026-05-09T02:48:00.674208,15.30204611,.000113,53.1610,54.7559,81.9625,278.1504,0,U,64620,999,4998,.34426E-3,.9852E-4,0
HAWK-12C,2025-138A,2026-05-09T02:03:33.812064,15.17913505,.0012189,97.4355,132.2061,280.4158,79.5702,0,U,64621,999,4793,.18939E-3,.378E-4,0
HAWK-12B,2025-138B,2026-05-09T02:03:49.280256,15.17913277,.0011165,97.4476,132.7917,274.9499,85.0460,0,U,64622,999,4793,.17511E-3,.3489E-4,0
HAWK-12A,2025-138C,2026-05-09T02:03:15.541056,15.17914215,.0012109,97.4416,132.4977,274.3573,85.6277,0,U,64623,999,4793,.18979E-3,.3788E-4,0
KESTREL-0A,2025-138D,2026-05-09T00:10:15.611232,15.22559740,.0011375,97.4416,133.5175,259.7598,100.2356,0,U,64624,999,4798,.34412E-3,.7932E-4,0
STARLINK-34464,2025-139A,2026-05-08T22:47:07.098144,15.34410383,.0001325,53.1595,206.8967,74.9625,285.1524,0,U,64664,999,4951,.82833E-3,.27723E-3,0
STARLINK-34555,2025-139B,2026-05-08T22:44:05.264160,15.34403850,.0001171,53.1592,206.8818,79.0799,281.0335,0,U,64665,999,4941,.75596E-3,.25254E-3,0
STARLINK-34390,2025-139C,2026-05-08T21:55:37.815168,15.34412562,.000128,53.1579,206.6706,75.1793,284.9351,0,U,64666,999,4957,.89385E-3,.29957E-3,0
STARLINK-34382,2025-139D,2026-05-08T22:25:24.396096,15.30209922,.0001197,53.1591,207.5099,82.7650,277.3486,0,U,64667,999,4950,.57172E-3,.16617E-3,0
STARLINK-34395,2025-139E,2026-05-09T05:11:23.514432,15.34407346,.0001454,53.1579,205.7131,104.8379,255.2785,0,U,64668,999,4955,.44018E-3,.14528E-3,0
STARLINK-34394,2025-139F,2026-05-08T22:38:01.779360,15.34416689,.0001567,53.1579,206.8535,100.9358,259.1821,0,U,64669,999,4951,.66427E-3,.22145E-3,0
STARLINK-34287,2025-139G,2026-05-08T13:06:09.860544,15.34414083,.00010521,53.1607,208.6426,78.9673,281.1448,0,U,64670,999,4945,.72816014E-3,.24317E-3,0
STARLINK-34365,2025-139H,2026-05-08T12:05:41.701632,15.34412576,.00011149,53.1593,209.0898,87.2647,272.8483,0,U,64671,999,4950,.49386693E-3,.16353E-3,0
STARLINK-34442,2025-139J,2026-05-08T22:10:45.580224,15.34405038,.0001351,53.1585,206.7334,79.5460,280.5695,0,U,64672,999,4951,.48571E-3,.16072E-3,0
STARLINK-34288,2025-139K,2026-05-08T22:19:50.943936,15.34404639,.0001177,53.1598,206.7743,81.2421,278.8715,0,U,64673,999,4951,.45137E-3,.14907E-3,0
STARLINK-34539,2025-139L,2026-05-09T04:19:52.967424,15.34393348,.0001125,53.1583,205.4907,92.6400,267.4731,0,U,64674,999,4945,.72297E-3,.24124E-3,0
STARLINK-34590,2025-139M,2026-05-08T11:37:40.705824,15.30235799,.00013047,53.1591,209.6753,95.3105,264.8044,0,U,64675,999,4943,.7221445E-3,.21113E-3,0
STARLINK-34573,2025-139N,2026-05-08T21:52:34.885632,15.34402207,.0001068,53.1574,206.6539,84.9947,275.1177,0,U,64676,999,4951,.62344E-3,.20748E-3,0
STARLINK-34605,2025-139P,2026-05-09T04:23:20.417280,15.30216448,.0001586,53.1576,195.5700,103.4662,256.6515,0,U,64677,999,4969,.21367E-3,.5977E-4,0
STARLINK-34525,2025-139Q,2026-05-08T22:28:26.558400,15.30210666,.0001389,53.1592,207.5171,74.0163,286.0991,0,U,64678,999,4950,.536E-3,.15554E-3,0
STARLINK-34489,2025-139R,2026-05-08T12:02:39.854688,15.34413058,.0001099,53.1591,209.0725,62.9055,297.2059,0,U,64679,999,4944,.4946158E-3,.16379E-3,0
STARLINK-34502,2025-139S,2026-05-08T21:58:38.539776,15.34402133,.000156,53.1588,206.6773,65.3412,294.7753,0,U,64680,999,4951,.75356E-3,.25171E-3,0
STARLINK-34553,2025-139T,2026-05-08T21:49:31.331424,15.34438799,.0000929,53.1583,206.6386,58.4591,301.6502,0,U,64681,999,4951,.62635E-3,.20871E-3,0
STARLINK-34551,2025-139U,2026-05-08T22:11:41.482752,15.30209021,.0000964,53.1582,196.7920,87.1058,273.0053,0,U,64682,999,4965,.3717E-3,.10668E-3,0
STARLINK-34550,2025-139V,2026-05-09T03:07:17.744736,15.34417072,.0001628,53.1589,205.8823,95.9878,264.1310,0,U,64683,999,4954,.85571E-3,.28662E-3,0
STARLINK-34485,2025-139W,2026-05-08T22:50:08.937312,15.34411152,.0001103,53.1592,206.8994,88.8415,271.2714,0,U,64684,999,4951,.87035E-3,.29155E-3,0
STARLINK-34253,2025-139X,2026-05-08T12:08:43.538208,15.34409642,.00011147,53.1593,209.0965,88.7487,271.3643,0,U,64685,999,4944,.74197373E-3,.24783E-3,0
STARLINK-34565,2025-139Y,2026-05-08T22:41:03.450048,15.34400189,.0001393,53.1581,206.8591,95.1677,264.9485,0,U,64686,999,4951,.69057E-3,.23028E-3,0
STARLINK-34554,2025-139Z,2026-05-08T22:07:43.934592,15.34407661,.0001732,53.1597,206.7182,80.7393,279.3806,0,U,64687,999,4951,.37717E-3,.12391E-3,0
STARLINK-34262,2025-139AA,2026-05-08T22:34:59.739744,15.34408430,.0001106,53.1593,206.8307,88.0240,272.0890,0,U,64688,999,4957,.8154E-3,.27281E-3,0
STARLINK-34538,2025-139AB,2026-05-08T22:31:57.830592,15.34409290,.0001125,53.1596,206.8213,74.4634,285.6493,0,U,64689,999,4951,.65188E-3,.21719E-3,0
STARLINK-34250,2025-139AC,2026-05-08T11:56:36.460608,15.34408359,.00011312,53.1588,209.0423,78.7623,281.3507,0,U,64690,999,4944,.76338595E-3,.25511E-3,0
LYRA-4,2025-140A,2026-05-09T01:46:23.518848,14.72405281,.0011812,96.0009,259.6725,345.4166,14.6704,0,U,64691,999,4630,.16457E-3,.1014E-4,0
GOSAT-GW (IBUKI GW),2025-141A,2026-05-09T02:55:56.546400,14.67555245,.000144,98.0561,67.0773,83.8619,276.2749,0,U,64694,999,4611,.99799E-4,.518E-5,0
STARLINK-34497,2025-142A,2026-05-09T04:28:21.847008,14.98339522,.0003857,70.0003,161.8848,268.3961,91.6756,0,U,64696,999,4870,.24477E-3,.283E-4,0
STARLINK-34584,2025-142B,2026-05-09T04:04:05.791008,14.98333869,.0003815,70.0003,161.8206,268.7373,91.3349,0,U,64697,999,4854,.2871E-3,.3335E-4,0
STARLINK-34535,2025-142C,2026-05-09T05:10:12.427968,14.98335787,.0004534,70.0008,161.9594,264.2509,95.8133,0,U,64698,999,4853,.26116E-3,.3025E-4,0
STARLINK-34600,2025-142D,2026-05-09T05:04:11.390016,14.98338839,.0004194,70.0014,161.9399,259.0946,100.9742,0,U,64699,999,4854,.26332E-3,.3051E-4,0
STARLINK-34560,2025-142E,2026-05-09T03:46:04.410336,14.98356692,.0004312,70.0003,162.1496,267.7892,92.2774,0,U,64700,999,4849,.72193E-3,.8538E-4,0
STARLINK-34576,2025-142F,2026-05-09T04:10:20.856000,14.98330960,.0004021,70.0005,161.8065,266.1135,93.9565,0,U,64701,999,4853,.28345E-3,.3291E-4,0
